[{"OBJECT_NAME":"ONEWEB-0098","OBJECT_ID":"2020-020U","EPOCH":"2026-03-09T22:23:24.618912","MEAN_MOTION":13.11414551,"ECCENTRICITY":0.00019014,"INCLINATION":87.8863,"RA_OF_ASC_NODE":40.7976,"ARG_OF_PERICENTER":84.2689,"MEAN_ANOMALY":275.8656,"EPHEMERIS_TYPE":0,"CLASSIFICATION_TYPE":"U","NORAD_CAT_ID":45442,"ELEMENT_SET_NO":999,"REV_AT_EPOCH":28963,"BSTAR":-0.00068343356,"MEAN_MOTION_DOT":-2.3e-6,"MEAN_MOTION_DDOT":0},{"OBJECT_NAME":"UNKNOWN","OBJECT_ID":"","EPOCH":"2026-02-28T04:48:50.622624","MEAN_MOTION":13.79668182,"ECCENTRICITY":0.03816557,"INCLINATION":72.875,"RA_OF_ASC_NODE":26.05,"ARG_OF_PERICENTER":110.937,"MEAN_ANOMALY":253.3032,"EPHEMERIS_TYPE":0,"CLASSIFICATION_TYPE":"U","NORAD_CAT_ID":270084,"ELEMENT_SET_NO":999,"REV_AT_EPOCH":31064,"BSTAR":0.002771085,"MEAN_MOTION_DOT":4.927e-5,"MEAN_MOTION_DDOT":0}]
